start=new Date('2023-03-03T00:00:00.000Z').valueOf();
sats=[{"MEAN_MOTION_DOT":"0.00020733","REF_FRAME":"TEME","EPHEMERIS_TYPE":"0","OBJECT_TYPE":"PAYLOAD","SITE":"AFETR","TLE_LINE1":"1 52089U 22029B   23061.79449117  .00020733  00000-0  13159-2 0  9999","BSTAR":"0.00131590000000","PERIOD":"95.436","RA_OF_ASC_NODE":"0.2101","EPOCH":"2023-03-02T19:04:04.037088","APOAPSIS":"540.568","COUNTRY_CODE":"US","SEMIMAJOR_AXIS":"6917.793","DECAY_DATE":null,"GP_ID":"227362749","MEAN_MOTION":"15.08868575","MEAN_ANOMALY":"225.6622","OBJECT_ID":"2022-029B","FILE":"3849487","ELEMENT_SET_NO":"999","NORAD_CAT_ID":"52089","MEAN_ELEMENT_THEORY":"SGP4","CLASSIFICATION_TYPE":"U","CENTER_NAME":"EARTH","ARG_OF_PERICENTER":"134.4478","LAUNCH_DATE":"2022-03-19","TLE_LINE2":"2 52089  53.2181   0.2101 0001316 134.4478 225.6622 15.08868575 54155","PERIAPSIS":"538.748","ECCENTRICITY":"0.00013160","MEAN_MOTION_DDOT":"0.0000000000000","TIME_SYSTEM":"UTC","RCS_SIZE":"LARGE","INCLINATION":"53.2181","OBJECT_NAME":"STARLINK-3722","REV_AT_EPOCH":"5415"},{"MEAN_ANOMALY":"262.5875","OBJECT_ID":"2022-029C","GP_ID":"227362506","DECAY_DATE":null,"MEAN_MOTION":"15.08826015","APOAPSIS":"540.482","SEMIMAJOR_AXIS":"6917.923","COUNTRY_CODE":"US","RA_OF_ASC_NODE":"2.6373","EPOCH":"2023-03-02T06:05:04.930656","SITE":"AFETR","TLE_LINE1":"1 52090U 22029C   23061.25352929  .00020757  00000-0  13189-2 0  9995","PERIOD":"95.438","BSTAR":"0.00131890000000","OBJECT_TYPE":"PAYLOAD","EPHEMERIS_TYPE":"0","REF_FRAME":"TEME","MEAN_MOTION_DOT":"0.00020757","TIME_SYSTEM":"UTC","RCS_SIZE":"LARGE","INCLINATION":"53.2187","OBJECT_NAME":"STARLINK-3712","REV_AT_EPOCH":"5407","ECCENTRICITY":"0.00010030","MEAN_MOTION_DDOT":"0.0000000000000","PERIAPSIS":"539.094","TLE_LINE2":"2 52090  53.2187   2.6373 0001003  97.5231 262.5875 15.08826015 54073","LAUNCH_DATE":"2022-03-19","CLASSIFICATION_TYPE":"U","ARG_OF_PERICENTER":"97.5231","CENTER_NAME":"EARTH","MEAN_ELEMENT_THEORY":"SGP4","NORAD_CAT_ID":"52090","ELEMENT_SET_NO":"999","FILE":"3849487"},{"SITE":"AFETR","TLE_LINE1":"1 52091U 22029D   23061.26089857  .00049223  00000-0  30886-2 0  9996","BSTAR":"0.00308860000000","PERIOD":"95.437","OBJECT_TYPE":"PAYLOAD","EPHEMERIS_TYPE":"0","REF_FRAME":"TEME","MEAN_MOTION_DOT":"0.00049223","MEAN_ANOMALY":"255.7606","OBJECT_ID":"2022-029D","GP_ID":"227361748","DECAY_DATE":null,"MEAN_MOTION":"15.08848948","APOAPSIS":"540.785","SEMIMAJOR_AXIS":"6917.853","COUNTRY_CODE":"US","RA_OF_ASC_NODE":"2.6076","EPOCH":"2023-03-02T06:15:41.636448","MEAN_ELEMENT_THEORY":"SGP4","NORAD_CAT_ID":"52091","ELEMENT_SET_NO":"999","FILE":"3849487","RCS_SIZE":"LARGE","INCLINATION":"53.2171","TIME_SYSTEM":"UTC","OBJECT_NAME":"STARLINK-3713","REV_AT_EPOCH":"5407","ECCENTRICITY":"0.00015430","MEAN_MOTION_DDOT":"0.0000000000000","PERIAPSIS":"538.651","TLE_LINE2":"2 52091  53.2171   2.6076 0001543 104.3557 255.7606 15.08848948 54079","LAUNCH_DATE":"2022-03-19","CLASSIFICATION_TYPE":"U","ARG_OF_PERICENTER":"104.3557","CENTER_NAME":"EARTH"},{"TLE_LINE1":"1 52092U 22029E   23061.85336990 -.00007989  00000-0 -48402-3 0  9994","SITE":"AFETR","BSTAR":"-0.00048402000000","PERIOD":"95.436","OBJECT_TYPE":"PAYLOAD","EPHEMERIS_TYPE":"0","REF_FRAME":"TEME","MEAN_MOTION_DOT":"-0.00007989","MEAN_ANOMALY":"354.1948","OBJECT_ID":"2022-029E","DECAY_DATE":null,"GP_ID":"227361998","MEAN_MOTION":"15.08869144","APOAPSIS":"540.302","COUNTRY_CODE":"US","SEMIMAJOR_AXIS":"6917.791","RA_OF_ASC_NODE":"359.9500","EPOCH":"2023-03-02T20:28:51.159360","MEAN_ELEMENT_THEORY":"SGP4","NORAD_CAT_ID":"52092","ELEMENT_SET_NO":"999","FILE":"3849487","OBJECT_NAME":"STARLINK-3716","RCS_SIZE":"LARGE","INCLINATION":"53.2180","TIME_SYSTEM":"UTC","REV_AT_EPOCH":"5416","ECCENTRICITY":"0.00009330","MEAN_MOTION_DDOT":"0.0000000000000","PERIAPSIS":"539.011","TLE_LINE2":"2 52092  53.2180 359.9500 0000933   5.9055 354.1948 15.08869144 54165","LAUNCH_DATE":"2022-03-19","CLASSIFICATION_TYPE":"U","CENTER_NAME":"EARTH","ARG_OF_PERICENTER":"5.9055"},{"FILE":"3849487","NORAD_CAT_ID":"52093","MEAN_ELEMENT_THEORY":"SGP4","ELEMENT_SET_NO":"999","CLASSIFICATION_TYPE":"U","CENTER_NAME":"EARTH","ARG_OF_PERICENTER":"111.6769","ECCENTRICITY":"0.00016540","MEAN_MOTION_DDOT":"0.0000000000000","RCS_SIZE":"LARGE","TIME_SYSTEM":"UTC","INCLINATION":"53.2164","OBJECT_NAME":"STARLINK-3673","REV_AT_EPOCH":"5407","LAUNCH_DATE":"2022-03-19","TLE_LINE2":"2 52093  53.2164   2.6738 0001654 111.6769 248.4399 15.08850117 54076","PERIAPSIS":"538.570","EPHEMERIS_TYPE":"0","MEAN_MOTION_DOT":"0.00017131","REF_FRAME":"TEME","SITE":"AFETR","TLE_LINE1":"1 52093U 22029F   23061.24617327  .00017131  00000-0  10915-2 0  9999","BSTAR":"0.00109150000000","PERIOD":"95.437","OBJECT_TYPE":"PAYLOAD","GP_ID":"227362256","DECAY_DATE":null,"MEAN_MOTION":"15.08850117","MEAN_ANOMALY":"248.4399","OBJECT_ID":"2022-029F","RA_OF_ASC_NODE":"2.6738","EPOCH":"2023-03-02T05:54:29.370528","APOAPSIS":"540.859","SEMIMAJOR_AXIS":"6917.849","COUNTRY_CODE":"US"},{"ARG_OF_PERICENTER":"109.8919","CENTER_NAME":"EARTH","CLASSIFICATION_TYPE":"U","REV_AT_EPOCH":"5416","RCS_SIZE":"LARGE","INCLINATION":"53.2174","OBJECT_NAME":"STARLINK-3714","TIME_SYSTEM":"UTC","MEAN_MOTION_DDOT":"0.0000000000000","ECCENTRICITY":"0.00009670","PERIAPSIS":"539.005","LAUNCH_DATE":"2022-03-19","TLE_LINE2":"2 52094  53.2174 359.9791 0000967 109.8919 250.2178 15.08863523 54168","FILE":"3849487","MEAN_ELEMENT_THEORY":"SGP4","NORAD_CAT_ID":"52094","ELEMENT_SET_NO":"999","OBJECT_ID":"2022-029G","MEAN_ANOMALY":"250.2178","MEAN_MOTION":"15.08863523","DECAY_DATE":null,"GP_ID":"227363000","SEMIMAJOR_AXIS":"6917.808","COUNTRY_CODE":"US","APOAPSIS":"540.342","EPOCH":"2023-03-02T20:18:15.603552","RA_OF_ASC_NODE":"359.9791","EPHEMERIS_TYPE":"0","REF_FRAME":"TEME","MEAN_MOTION_DOT":"0.00019100","PERIOD":"95.436","BSTAR":"0.00121410000000","SITE":"AFETR","TLE_LINE1":"1 52094U 22029G   23061.84601393  .00019100  00000-0  12141-2 0  9993","OBJECT_TYPE":"PAYLOAD"},{"EPHEMERIS_TYPE":"0","MEAN_MOTION_DOT":"0.00039161","REF_FRAME":"TEME","TLE_LINE1":"1 52095U 22029H   23061.23882722  .00039161  00000-0  24628-2 0  9996","SITE":"AFETR","PERIOD":"95.435","BSTAR":"0.00246280000000","OBJECT_TYPE":"PAYLOAD","DECAY_DATE":null,"GP_ID":"227361255","MEAN_MOTION":"15.08872609","MEAN_ANOMALY":"236.0574","OBJECT_ID":"2022-029H","RA_OF_ASC_NODE":"2.7041","EPOCH":"2023-03-02T05:43:54.671808","APOAPSIS":"540.870","SEMIMAJOR_AXIS":"6917.781","COUNTRY_CODE":"US","FILE":"3849487","NORAD_CAT_ID":"52095","MEAN_ELEMENT_THEORY":"SGP4","ELEMENT_SET_NO":"999","CLASSIFICATION_TYPE":"U","ARG_OF_PERICENTER":"124.0586","CENTER_NAME":"EARTH","ECCENTRICITY":"0.00017700","MEAN_MOTION_DDOT":"0.0000000000000","RCS_SIZE":"LARGE","TIME_SYSTEM":"UTC","INCLINATION":"53.2167","OBJECT_NAME":"STARLINK-3701","REV_AT_EPOCH":"5407","LAUNCH_DATE":"2022-03-19","TLE_LINE2":"2 52095  53.2167   2.7041 0001770 124.0586 236.0574 15.08872609 54071","PERIAPSIS":"538.421"},{"ELEMENT_SET_NO":"999","MEAN_ELEMENT_THEORY":"SGP4","NORAD_CAT_ID":"52096","FILE":"3849487","PERIAPSIS":"539.038","LAUNCH_DATE":"2022-03-19","TLE_LINE2":"2 52096  53.2190 350.1268 0001076  92.7599 267.3516 15.08828044 54283","RCS_SIZE":"LARGE","INCLINATION":"53.2190","TIME_SYSTEM":"UTC","OBJECT_NAME":"STARLINK-3717","REV_AT_EPOCH":"5428","ECCENTRICITY":"0.00010760","MEAN_MOTION_DDOT":"0.0000000000000","CLASSIFICATION_TYPE":"U","CENTER_NAME":"EARTH","ARG_OF_PERICENTER":"92.7599","OBJECT_TYPE":"PAYLOAD","TLE_LINE1":"1 52096U 22029J   23061.81381863  .00000541  00000-0  52079-4 0  9994","SITE":"AFETR","BSTAR":"0.00005207900000","PERIOD":"95.438","REF_FRAME":"TEME","MEAN_MOTION_DOT":"0.00000541","EPHEMERIS_TYPE":"0","APOAPSIS":"540.526","SEMIMAJOR_AXIS":"6917.917","COUNTRY_CODE":"US","RA_OF_ASC_NODE":"350.1268","EPOCH":"2023-03-02T19:31:53.929632","MEAN_ANOMALY":"267.3516","OBJECT_ID":"2022-029J","DECAY_DATE":null,"GP_ID":"227361505","MEAN_MOTION":"15.08828044"},{"OBJECT_TYPE":"PAYLOAD","BSTAR":"0.00261090000000","PERIOD":"95.434","SITE":"AFETR","TLE_LINE1":"1 52098U 22029L   23061.24248679  .00041567  00000-0  26109-2 0  9996","REF_FRAME":"TEME","MEAN_MOTION_DOT":"0.00041567","EPHEMERIS_TYPE":"0","SEMIMAJOR_AXIS":"6917.728","COUNTRY_CODE":"US","APOAPSIS":"540.834","EPOCH":"2023-03-02T05:49:10.858656","RA_OF_ASC_NODE":"2.6929","OBJECT_ID":"2022-029L","MEAN_ANOMALY":"255.7916","MEAN_MOTION":"15.08889770","DECAY_DATE":null,"GP_ID":"227362750","ELEMENT_SET_NO":"999","MEAN_ELEMENT_THEORY":"SGP4","NORAD_CAT_ID":"52098","FILE":"3849487","PERIAPSIS":"538.353","LAUNCH_DATE":"2022-03-19","TLE_LINE2":"2 52098  53.2159   2.6929 0001793 104.3275 255.7916 15.08889770 54075","REV_AT_EPOCH":"5407","RCS_SIZE":"LARGE","TIME_SYSTEM":"UTC","INCLINATION":"53.2159","OBJECT_NAME":"STARLINK-3665","MEAN_MOTION_DDOT":"0.0000000000000","ECCENTRICITY":"0.00017930","CENTER_NAME":"EARTH","ARG_OF_PERICENTER":"104.3275","CLASSIFICATION_TYPE":"U"},{"FILE":"3849487","NORAD_CAT_ID":"52100","MEAN_ELEMENT_THEORY":"SGP4","ELEMENT_SET_NO":"999","CENTER_NAME":"EARTH","ARG_OF_PERICENTER":"98.7846","CLASSIFICATION_TYPE":"U","MEAN_MOTION_DDOT":"0.0000000000000","ECCENTRICITY":"0.00015490","REV_AT_EPOCH":"5408","INCLINATION":"53.2157","RCS_SIZE":"LARGE","OBJECT_NAME":"STARLINK-3702","TIME_SYSTEM":"UTC","LAUNCH_DATE":"2022-03-19","TLE_LINE2":"2 52100  53.2157   2.4301 0001549  98.7846 261.3322 15.08864188 54089","PERIAPSIS":"538.600","EPHEMERIS_TYPE":"0","MEAN_MOTION_DOT":"0.00011734","REF_FRAME":"TEME","PERIOD":"95.436","BSTAR":"0.00075364000000","TLE_LINE1":"1 52100U 22029N   23061.30137100  .00011734  00000-0  75364-3 0  9994","SITE":"AFETR","OBJECT_TYPE":"PAYLOAD","MEAN_MOTION":"15.08864188","DECAY_DATE":null,"GP_ID":"227362507","OBJECT_ID":"2022-029N","MEAN_ANOMALY":"261.3322","EPOCH":"2023-03-02T07:13:58.454400","RA_OF_ASC_NODE":"2.4301","SEMIMAJOR_AXIS":"6917.806","COUNTRY_CODE":"US","APOAPSIS":"540.743"}];
